[{"OBJECT_NAME":"NUSAT-41 (C PAYNE-G)","OBJECT_ID":"2023-084N","EPOCH":"2026-03-09T21:55:54.837696","MEAN_MOTION":15.29680045,"ECCENTRICITY":0.00062175,"INCLINATION":97.5351,"RA_OF_ASC_NODE":204.1011,"ARG_OF_PERICENTER":322.2064,"MEAN_ANOMALY":37.8738,"EPHEMERIS_TYPE":0,"CLASSIFICATION_TYPE":"U","NORAD_CAT_ID":56944,"ELEMENT_SET_NO":999,"REV_AT_EPOCH":15260,"BSTAR":0.00059912824,"MEAN_MOTION_DOT":0.0001718,"MEAN_MOTION_DDOT":0},{"OBJECT_NAME":"STARLINK-31595","OBJECT_ID":"2024-050V","EPOCH":"2026-03-09T18:50:55.157568","MEAN_MOTION":15.30215116,"ECCENTRICITY":0.00014207,"INCLINATION":53.157,"RA_OF_ASC_NODE":180.5315,"ARG_OF_PERICENTER":96.4959,"MEAN_ANOMALY":263.6204,"EPHEMERIS_TYPE":0,"CLASSIFICATION_TYPE":"U","NORAD_CAT_ID":59273,"ELEMENT_SET_NO":999,"REV_AT_EPOCH":11056,"BSTAR":0.00081891466,"MEAN_MOTION_DOT":0.00023984,"MEAN_MOTION_DDOT":0}]
